[{"OBJECT_NAME":"STARLINK-33854","OBJECT_ID":"2025-083B","EPOCH":"2026-03-09T04:40:30.729504","MEAN_MOTION":15.27547745,"ECCENTRICITY":0.00012418,"INCLINATION":43.0017,"RA_OF_ASC_NODE":7.7991,"ARG_OF_PERICENTER":252.889,"MEAN_ANOMALY":107.1826,"EPHEMERIS_TYPE":0,"CLASSIFICATION_TYPE":"U","NORAD_CAT_ID":63635,"ELEMENT_SET_NO":999,"REV_AT_EPOCH":4999,"BSTAR":0.0016212365,"MEAN_MOTION_DOT":0.00044577,"MEAN_MOTION_DDOT":0},{"OBJECT_NAME":"COSMOS 2251 DEB","OBJECT_ID":"1993-036BPR","EPOCH":"2026-02-24T07:57:21.236256","MEAN_MOTION":15.23776337,"ECCENTRICITY":0.00166824,"INCLINATION":73.9787,"RA_OF_ASC_NODE":76.2838,"ARG_OF_PERICENTER":284.1156,"MEAN_ANOMALY":75.8189,"EPHEMERIS_TYPE":0,"CLASSIFICATION_TYPE":"U","NORAD_CAT_ID":37966,"ELEMENT_SET_NO":999,"REV_AT_EPOCH":86459,"BSTAR":0.0031189174,"MEAN_MOTION_DOT":0.00076101,"MEAN_MOTION_DDOT":0}]
